{
  "type": "FeatureCollection",
  "features": [
    {
      "type": "Feature",
      "properties": {
        "norad_id": 66383,
        "name": "STARLINK-35690",
        "group": "last-30-days",
        "lat": 23.259092003790414,
        "lon": -28.155103205695163,
        "alt_km": 429.4304831296786,
        "timestamp": "2025-12-02T10:50:46.051330+00:00",
        "meta_object_name": "STARLINK-35690",
        "meta_object_id": "2025-257D",
        "meta_epoch": "2025-12-02T04:00:03.998880",
        "meta_mean_motion": 15.45905804,
        "meta_eccentricity": 0.0001487,
        "meta_inclination": 53.1593,
        "meta_ra_of_asc_node": 314.4014,
        "meta_arg_of_pericenter": 89.8673,
        "meta_mean_anomaly": 152.312,
        "meta_ephemeris_type": 0,
        "meta_classification_type": "U",
        "meta_norad_cat_id": 66383,
        "meta_element_set_no": 999,
        "meta_rev_at_epoch": 479,
        "meta_bstar": -0.04707,
        "meta_mean_motion_dot": -0.02067014,
        "meta_mean_motion_ddot": 0,
        "tle_line1": "1 66383U 25257D   25336.16671295 -.02067014  00000+0 -47070-1 0  9993",
        "tle_line2": "2 66383  53.1593 314.4014 0001487  89.8673 152.3120 15.45905804  4797"
      },
      "geometry": {
        "type": "Point",
        "coordinates": [
          -28.155103205695163,
          23.259092003790414
        ]
      }
    },
    {
      "type": "Feature",
      "properties": {
        "norad_id": 66384,
        "name": "STARLINK-35662",
        "group": "last-30-days",
        "lat": 24.67393577061379,
        "lon": -26.809723952029955,
        "alt_km": 429.1457683882236,
        "timestamp": "2025-12-02T10:50:46.051340+00:00",
        "meta_object_name": "STARLINK-35662",
        "meta_object_id": "2025-257E",
        "meta_epoch": "2025-12-02T04:00:03.998880",
        "meta_mean_motion": 15.45897262,
        "meta_eccentricity": 0.0001527,
        "meta_inclination": 53.1588,
        "meta_ra_of_asc_node": 314.3988,
        "meta_arg_of_pericenter": 86.5567,
        "meta_mean_anomaly": 157.5074,
        "meta_ephemeris_type": 0,
        "meta_classification_type": "U",
        "meta_norad_cat_id": 66384,
        "meta_element_set_no": 999,
        "meta_rev_at_epoch": 479,
        "meta_bstar": -0.047252,
        "meta_mean_motion_dot": -0.02073607,
        "meta_mean_motion_ddot": 0,
        "tle_line1": "1 66384U 25257E   25336.16671295 -.02073607  00000+0 -47252-1 0  9991",
        "tle_line2": "2 66384  53.1588 314.3988 0001527  86.5567 157.5074 15.45897262  4795"
      },
      "geometry": {
        "type": "Point",
        "coordinates": [
          -26.809723952029955,
          24.67393577061379
        ]
      }
    },
    {
      "type": "Feature",
      "properties": {
        "norad_id": 66385,
        "name": "STARLINK-35659",
        "group": "last-30-days",
        "lat": 10.952974971324455,
        "lon": -38.579199876861196,
        "alt_km": 439.86830394166464,
        "timestamp": "2025-12-02T10:50:46.051350+00:00",
        "meta_object_name": "STARLINK-35659",
        "meta_object_id": "2025-257F",
        "meta_epoch": "2025-12-02T04:00:03.998880",
        "meta_mean_motion": 15.4305769,
        "meta_eccentricity": 0.0001673,
        "meta_inclination": 53.1591,
        "meta_ra_of_asc_node": 314.4279,
        "meta_arg_of_pericenter": 86.3104,
        "meta_mean_anomaly": 142.9696,
        "meta_ephemeris_type": 0,
        "meta_classification_type": "U",
        "meta_norad_cat_id": 66385,
        "meta_element_set_no": 999,
        "meta_rev_at_epoch": 479,
        "meta_bstar": -0.05136,
        "meta_mean_motion_dot": -0.02047808,
        "meta_mean_motion_ddot": 0,
        "tle_line1": "1 66385U 25257F   25336.16671295 -.02047808  00000+0 -51360-1 0  9991",
        "tle_line2": "2 66385  53.1591 314.4279 0001673  86.3104 142.9696 15.43057690  4790"
      },
      "geometry": {
        "type": "Point",
        "coordinates": [
          -38.579199876861196,
          10.952974971324455
        ]
      }
    },
    {
      "type": "Feature",
      "properties": {
        "norad_id": 66386,
        "name": "STARLINK-35651",
        "group": "last-30-days",
        "lat": 31.553838370713553,
        "lon": -19.56210185627638,
        "alt_km": 419.86171032175116,
        "timestamp": "2025-12-02T10:50:46.051361+00:00",
        "meta_object_name": "STARLINK-35651",
        "meta_object_id": "2025-257G",
        "meta_epoch": "2025-12-02T04:00:03.998880",
        "meta_mean_motion": 15.48762853,
        "meta_eccentricity": 0.0001416,
        "meta_inclination": 53.1589,
        "meta_ra_of_asc_node": 314.3855,
        "meta_arg_of_pericenter": 106.0383,
        "meta_mean_anomaly": 144.4779,
        "meta_ephemeris_type": 0,
        "meta_classification_type": "U",
        "meta_norad_cat_id": 66386,
        "meta_element_set_no": 999,
        "meta_rev_at_epoch": 479,
        "meta_bstar": -0.04351,
        "meta_mean_motion_dot": -0.02106791,
        "meta_mean_motion_ddot": 0,
        "tle_line1": "1 66386U 25257G   25336.16671295 -.02106791  00000+0 -43510-1 0  9997",
        "tle_line2": "2 66386  53.1589 314.3855 0001416 106.0383 144.4779 15.48762853  4799"
      },
      "geometry": {
        "type": "Point",
        "coordinates": [
          -19.56210185627638,
          31.553838370713553
        ]
      }
    },
    {
      "type": "Feature",
      "properties": {
        "norad_id": 66387,
        "name": "STARLINK-35661",
        "group": "last-30-days",
        "lat": 32.9024226255672,
        "lon": -17.961711446088437,
        "alt_km": 419.608100685371,
        "timestamp": "2025-12-02T10:50:46.051370+00:00",
        "meta_object_name": "STARLINK-35661",
        "meta_object_id": "2025-257H",
        "meta_epoch": "2025-12-02T04:00:03.998880",
        "meta_mean_motion": 15.4876813,
        "meta_eccentricity": 0.0001185,
        "meta_inclination": 53.159,
        "meta_ra_of_asc_node": 314.3823,
        "meta_arg_of_pericenter": 95.5643,
        "meta_mean_anomaly": 156.8633,
        "meta_ephemeris_type": 0,
        "meta_classification_type": "U",
        "meta_norad_cat_id": 66387,
        "meta_element_set_no": 999,
        "meta_rev_at_epoch": 479,
        "meta_bstar": -0.044153,
        "meta_mean_motion_dot": -0.02134544,
        "meta_mean_motion_ddot": 0,
        "tle_line1": "1 66387U 25257H   25336.16671295 -.02134544  00000+0 -44153-1 0  9999",
        "tle_line2": "2 66387  53.1590 314.3823 0001185  95.5643 156.8633 15.48768130  4791"
      },
      "geometry": {
        "type": "Point",
        "coordinates": [
          -17.961711446088437,
          32.9024226255672
        ]
      }
    },
    {
      "type": "Feature",
      "properties": {
        "norad_id": 66388,
        "name": "STARLINK-35647",
        "group": "last-30-days",
        "lat": 35.190012388498324,
        "lon": -15.069001784002474,
        "alt_km": 413.62092709169247,
        "timestamp": "2025-12-02T10:50:46.051384+00:00",
        "meta_object_name": "STARLINK-35647",
        "meta_object_id": "2025-257J",
        "meta_epoch": "2025-12-02T04:00:03.998880",
        "meta_mean_motion": 15.4931516,
        "meta_eccentricity": 0.0001345,
        "meta_inclination": 53.1589,
        "meta_ra_of_asc_node": 314.3778,
        "meta_arg_of_pericenter": 91.2134,
        "meta_mean_anomaly": 163.2738,
        "meta_ephemeris_type": 0,
        "meta_classification_type": "U",
        "meta_norad_cat_id": 66388,
        "meta_element_set_no": 999,
        "meta_rev_at_epoch": 479,
        "meta_bstar": -5.4928e-05,
        "meta_mean_motion_dot": -3.503e-05,
        "meta_mean_motion_ddot": 0,
        "tle_line1": "1 66388U 25257J   25336.16671295 -.00003503  00000+0 -54928-4 0  9992",
        "tle_line2": "2 66388  53.1589 314.3778 0001345  91.2134 163.2738 15.49315160  4795"
      },
      "geometry": {
        "type": "Point",
        "coordinates": [
          -15.069001784002474,
          35.190012388498324
        ]
      }
    },
    {
      "type": "Feature",
      "properties": {
        "norad_id": 66389,
        "name": "STARLINK-35694",
        "group": "last-30-days",
        "lat": 36.534984513017015,
        "lon": -13.246802777037825,
        "alt_km": 413.14054354778364,
        "timestamp": "2025-12-02T10:50:46.051394+00:00",
        "meta_object_name": "STARLINK-35694",
        "meta_object_id": "2025-257K",
        "meta_epoch": "2025-12-02T04:00:03.998880",
        "meta_mean_motion": 15.49396391,
        "meta_eccentricity": 0.0001482,
        "meta_inclination": 53.1588,
        "meta_ra_of_asc_node": 314.3725,
        "meta_arg_of_pericenter": 85.7053,
        "meta_mean_anomaly": 170.7182,
        "meta_ephemeris_type": 0,
        "meta_classification_type": "U",
        "meta_norad_cat_id": 66389,
        "meta_element_set_no": 999,
        "meta_rev_at_epoch": 479,
        "meta_bstar": -0.0014245,
        "meta_mean_motion_dot": -0.00079118,
        "meta_mean_motion_ddot": 0,
        "tle_line1": "1 66389U 25257K   25336.16671295 -.00079118  00000+0 -14245-2 0  9994",
        "tle_line2": "2 66389  53.1588 314.3725 0001482  85.7053 170.7182 15.49396391  4798"
      },
      "geometry": {
        "type": "Point",
        "coordinates": [
          -13.246802777037825,
          36.534984513017015
        ]
      }
    }
  ]
}